OBJECT_NAME,OBJECT_ID,EPOCH,MEAN_MOTION,ECCENTRICITY,INCLINATION,RA_OF_ASC_NODE,ARG_OF_PERICENTER,MEAN_ANOMALY,EPHEMERIS_TYPE,CLASSIFICATION_TYPE,NORAD_CAT_ID,ELEMENT_SET_NO,REV_AT_EPOCH,BSTAR,MEAN_MOTION_DOT,MEAN_MOTION_DDOT
STARLINK-34946,2025-190S,2026-05-16T22:36:14.829120,15.30198672,.0001201,53.1594,211.2405,80.3714,279.7423,0,U,65367,999,4020,.20555E-3,.5733E-4,0
STARLINK-34259,2025-190T,2026-05-16T16:23:04.081632,15.30221597,.00009698,53.1587,212.4707,90.5078,269.6034,0,U,65368,999,4016,.65522492E-3,.1911E-3,0
STARLINK-34913,2025-190U,2026-05-16T22:30:11.421216,15.30197203,.000093,53.1596,211.2173,92.2012,267.9095,0,U,65369,999,4020,.48785E-3,.14116E-3,0
STARLINK-34870,2025-190V,2026-05-16T22:18:00.808128,15.30194022,.0001693,53.1592,211.1602,97.0104,263.1090,0,U,65370,999,3973,.11974E-3,.3188E-4,0
STARLINK-34869,2025-190W,2026-05-16T22:21:02.959200,15.30201102,.0001339,53.1598,211.1760,79.6077,280.5074,0,U,65371,999,4020,.24707E-3,.6965E-4,0
STARLINK-34903,2025-190X,2026-05-17T04:19:02.071776,15.30199962,.0001826,53.1583,209.8838,62.7511,297.3676,0,U,65372,999,4024,.25544E-3,.7214E-4,0
STARLINK-34891,2025-190Y,2026-05-16T22:22:03.026208,15.34406893,.0001472,53.1599,211.1698,93.9730,266.1441,0,U,65373,999,3968,.26783E-3,.8685E-4,0
STARLINK-34900,2025-190Z,2026-05-17T04:23:36.267360,15.30211239,.0001117,53.1595,209.8999,86.3178,273.7950,0,U,65374,999,3972,.51359E-3,.14888E-3,0
STARLINK-34305,2025-190AA,2026-05-16T22:04:20.214624,15.30203608,.0001275,53.1594,211.0968,86.3680,273.7467,0,U,65375,999,4020,.26622E-3,.7534E-4,0
STARLINK-34249,2025-190AB,2026-05-16T22:09:55.619424,15.34398471,.0001421,53.1601,211.1163,95.6402,264.4762,0,U,65376,999,4062,.33759E-3,.11046E-3,0
STARLINK-34879,2025-190AC,2026-05-17T04:08:23.752032,15.30193277,.0002057,53.1571,209.8313,83.8834,276.2400,0,U,65377,999,4024,.54511E-3,.15816E-3,0
STARLINK-34912,2025-190AD,2026-05-16T21:43:03.752256,15.30198631,.0001957,53.1575,211.0022,76.4186,283.7033,0,U,65378,999,4020,.32293E-3,.9216E-4,0
STARLINK-34985,2025-191A,2026-05-17T03:00:13.335840,15.05594780,.0003476,97.4874,8.6931,64.7977,295.3610,0,U,65379,999,4056,-.12724E-2,-.18346E-3,0
STARLINK-35051,2025-191B,2026-05-17T03:44:04.774848,15.05650862,.0002708,97.4832,8.8112,86.2139,273.9397,0,U,65380,999,4058,-.47417E-4,-.743E-5,0
STARLINK-35028,2025-191C,2026-05-17T03:20:11.378112,15.05641606,.0001865,97.4841,8.8357,67.0393,293.1031,0,U,65381,999,4057,.11018E-2,.15871E-3,0
STARLINK-35032,2025-191D,2026-05-17T04:11:59.002944,15.05655243,.0002119,97.4853,8.7839,77.6924,282.4541,0,U,65382,999,4057,-.93856E-4,-.1413E-4,0
STARLINK-35054,2025-191E,2026-05-17T03:12:09.811296,15.05657303,.0002093,97.4870,8.6869,65.4168,294.7277,0,U,65383,999,4056,.12058E-3,.1681E-4,0
STARLINK-35012,2025-191F,2026-05-17T02:48:14.632992,15.05657490,.0002185,97.4821,8.7073,67.5413,292.6045,0,U,65384,999,4056,.86764E-4,.1193E-4,0
STARLINK-35073,2025-191G,2026-05-17T04:00:01.578816,15.05651382,.0002711,97.4848,8.7953,80.7141,279.4392,0,U,65385,999,4057,.67722E-6,-.49E-6,0
STARLINK-35066,2025-191H,2026-05-17T03:32:07.018944,15.05652873,.0002155,97.4828,8.8236,71.6396,288.5065,0,U,65386,999,4057,-.25902E-4,-.433E-5,0
STARLINK-34703,2025-191J,2026-05-17T03:52:04.401984,15.05675169,.0003483,97.4863,8.7944,101.2994,258.8625,0,U,65387,999,4057,.12813E-2,.1849E-3,0
STARLINK-34957,2025-191K,2026-05-17T03:24:08.711136,15.05653801,.0001695,97.4853,8.8313,87.5603,272.5818,0,U,65388,999,4057,.22657E-3,.3212E-4,0
STARLINK-34993,2025-191L,2026-05-17T02:52:13.662048,15.05656250,.000168,97.4853,8.7041,72.2257,287.9153,0,U,65389,999,4056,.1878E-3,.2652E-4,0
STARLINK-35083,2025-191M,2026-05-17T03:08:12.449760,15.05647956,.0002245,97.4863,8.6911,76.3927,283.7550,0,U,65390,999,4056,.9963E-3,.14345E-3,0
STARLINK-34786,2025-191N,2026-05-17T03:36:07.128864,15.05639021,.0002658,97.4818,8.8192,81.3631,278.7897,0,U,65391,999,4057,.87317E-3,.12559E-3,0
STARLINK-35082,2025-191P,2026-05-17T03:16:10.200288,15.05659461,.000238,97.4848,8.8423,54.9119,305.2331,0,U,65392,999,4057,.25972E-3,.3691E-4,0
STARLINK-35097,2025-191Q,2026-05-17T04:07:59.913408,15.05652116,.0002341,97.4849,8.7878,65.4227,294.7244,0,U,65393,999,3912,.5292E-4,.705E-5,0
STARLINK-35058,2025-191R,2026-05-17T04:15:59.599296,15.05654168,.0002772,97.4801,8.7827,89.9490,270.2054,0,U,65394,999,4057,.41777E-3,.5975E-4,0
STARLINK-35094,2025-191S,2026-05-17T04:19:57.882720,15.05656300,.0003924,97.4806,8.7777,60.5343,299.6275,0,U,65395,999,4058,.44997E-5,.6E-7,0
STARLINK-34811,2025-191T,2026-05-17T03:04:11.500032,15.05655688,.0002126,97.4860,8.6956,73.9557,286.1904,0,U,65396,999,4056,.11902E-3,.1659E-4,0
STARLINK-34940,2025-191U,2026-05-17T03:56:02.389920,15.05655216,.0003371,97.4827,8.8012,76.5757,283.5845,0,U,65397,999,4057,-.21814E-4,-.374E-5,0
STARLINK-34931,2025-191V,2026-05-17T02:56:13.493760,15.05644199,.0001882,97.4868,8.7029,75.8208,284.3228,0,U,65398,999,4056,.63375E-3,.9096E-4,0
STARLINK-34836,2025-191W,2026-05-17T04:04:00.753888,15.05652349,.0002625,97.4839,8.7924,61.1685,298.9805,0,U,65399,999,4057,-.65639E-4,-.1006E-4,0
STARLINK-34876,2025-191X,2026-05-17T03:28:09.343776,15.05625723,.0002299,97.4835,8.8280,87.5345,272.6145,0,U,65400,999,4057,.14474E-2,.20873E-3,0
STARLINK-34909,2025-191Y,2026-05-17T03:48:03.801312,15.05653748,.0002281,97.4826,8.8083,79.8912,280.2572,0,U,65401,999,4058,-.504E-4,-.786E-5,0
STARLINK-34848,2025-191Z,2026-05-17T03:40:05.530656,15.05653546,.0002909,97.4836,8.8161,81.5710,278.5847,0,U,65402,999,4057,-.37529E-5,-.113E-5,0
LEMUR-2-LUCILLE-ROSE,2025-135BV,2026-05-17T01:42:12.583008,14.99678317,.0011452,97.7712,253.3304,36.8648,323.3360,0,U,65403,999,4397,.51899E-3,.635E-4,0
STARLINK-35031,2025-192A,2026-05-17T03:25:26.909184,15.34378167,.0002057,53.1613,284.4254,83.7810,276.3427,0,U,65404,999,3972,.58152E-3,.19308E-3,0
STARLINK-34830,2025-192B,2026-05-16T19:03:17.483040,15.30227346,.0000392,53.1609,275.8482,67.5825,292.5218,0,U,65405,999,3982,.98069E-3,.28823E-3,0
STARLINK-35036,2025-192C,2026-05-17T01:51:26.160768,15.30182618,.000358,53.1583,274.7665,70.8508,289.2880,0,U,65406,999,3985,.86907E-3,.25457E-3,0
STARLINK-35035,2025-192D,2026-05-17T01:46:52.087008,15.30193873,.0001921,53.1593,274.7513,72.6427,287.4783,0,U,65407,999,3986,.48738E-3,.141E-3,0
STARLINK-35008,2025-192E,2026-05-16T19:26:05.239968,15.30205988,.00007475,53.1581,275.9458,69.2719,290.8362,0,U,65408,999,3981,.54141991E-3,.15713E-3,0
STARLINK-35022,2025-192F,2026-05-17T02:31:53.522976,15.31705018,.0003728,53.1552,274.2374,86.5054,273.6373,0,U,65409,999,3986,.19089E-3,.5563E-4,0
STARLINK-35024,2025-192G,2026-05-17T02:38:35.352096,15.31734301,.0001385,53.1674,274.2688,285.0976,74.9872,0,U,65410,999,3986,.91955E-3,.28308E-3,0
STARLINK-34983,2025-192H,2026-05-16T21:35:34.758240,15.31726445,.0002699,53.1608,275.0886,80.6328,279.4979,0,U,65411,999,3983,.59568E-3,.1818E-3,0
STARLINK-34992,2025-192J,2026-05-17T02:24:11.716704,15.31683932,.0001566,53.1585,274.2009,90.6357,269.4824,0,U,65412,999,3984,.62338E-3,.19019E-3,0
STARLINK-35003,2025-192K,2026-05-17T03:58:54.679296,15.30186810,.000134,53.1598,274.6074,89.6822,270.4332,0,U,65413,999,3986,.18206E-3,.5034E-4,0
STARLINK-34238,2025-192M,2026-05-16T21:35:05.309664,15.30222467,.0001013,53.1595,275.7915,82.1278,277.9838,0,U,65415,999,3982,.81057E-3,.23741E-3,0
STARLINK-34855,2025-192N,2026-05-17T02:33:58.228416,15.30196648,.0000842,53.1628,274.9524,82.2445,277.8652,0,U,65416,999,3985,.7839E-3,.22927E-3,0
STARLINK-34255,2025-192P,2026-05-17T02:08:08.577024,15.30195212,.0002099,53.1555,274.8336,72.5667,287.5564,0,U,65417,999,3985,.21804E-3,.6103E-4,0
STARLINK-34997,2025-192Q,2026-05-16T19:27:36.189792,15.30182283,.00014591,53.1579,275.9556,100.7436,259.3729,0,U,65418,999,3981,.10325526E-2,.3033E-3,0
STARLINK-35085,2025-192R,2026-05-17T01:43:52.095072,15.31712932,.0001246,53.1612,274.0325,65.1290,294.9841,0,U,65419,999,3986,.80054E-3,.24568E-3,0
STARLINK-35138,2025-192S,2026-05-17T02:45:19.520064,15.31696257,.0001307,53.1551,274.3013,69.9972,290.1170,0,U,65420,999,3986,.25974E-3,.7702E-4,0
STARLINK-35146,2025-192T,2026-05-17T04:00:01.998720,15.31671874,.0000934,53.1604,274.1021,88.6717,171.9185,0,U,65421,999,590,.90739E-3,.27873E-3,0
STARLINK-35074,2025-192U,2026-05-16T19:32:09.902400,15.30235018,.00007991,53.1594,275.9646,68.2421,291.8665,0,U,65422,999,3981,.62195537E-3,.18126E-3,0
STARLINK-34837,2025-192V,2026-05-16T19:13:55.146144,15.30237529,.000225,53.1677,275.8967,312.3811,47.6999,0,U,65423,999,3981,.78210612E-3,.22903E-3,0
STARLINK-34670,2025-192W,2026-05-17T02:38:06.271584,15.31731312,.0001144,53.1655,274.2607,281.6343,78.4530,0,U,65424,999,3986,.78325E-3,.24042E-3,0
STARLINK-35095,2025-192X,2026-05-17T02:05:08.058048,15.31696178,.0001603,53.1606,274.8243,74.6906,285.4273,0,U,65425,999,3985,.78023E-3,.23921E-3,0
STARLINK-34883,2025-192Y,2026-05-17T02:42:55.823040,15.30200552,.0002027,53.1572,274.2786,97.4930,262.6301,0,U,65426,999,3985,.16709E-3,.4592E-4,0
STARLINK-34916,2025-192Z,2026-05-17T02:47:29.266080,15.30184001,.0001872,53.1587,274.2996,85.0910,275.0304,0,U,65427,999,3986,.20714E-3,.5777E-4,0
STARLINK-35004,2025-192AA,2026-05-17T02:12:42.058944,15.30181404,.0001841,53.1607,274.8502,82.2205,277.9004,0,U,65428,999,3985,.4019E-3,.11556E-3,0
STARLINK-35014,2025-192AB,2026-05-17T02:20:16.721664,15.30200600,.0000391,53.1591,274.8830,246.9459,113.1501,0,U,65429,999,3985,.12221E-3,.3263E-4,0
STARLINK-35025,2025-192AC,2026-05-17T04:00:01.998720,15.34358605,.0001273,53.1595,274.4185,95.8108,2.5895,0,U,65430,999,585,.90874E-3,.30411E-3,0
STARLINK-35034,2025-192AD,2026-05-17T02:05:04.825824,15.30199309,.0000757,53.1631,274.8201,241.3935,118.6989,0,U,65431,999,3985,-.66933E-5,-.557E-5,0
STARLINK-35142,2025-194A,2026-05-17T03:22:25.110624,15.05653954,.0002454,97.4850,351.5530,72.4123,287.7371,0,U,65434,999,3994,.22429E-4,.265E-5,0
STARLINK-34978,2025-194B,2026-05-17T03:50:20.696064,15.05657272,.0002355,97.4817,351.6949,75.7954,284.3534,0,U,65435,999,3995,-.57167E-4,-.884E-5,0
